[{"OBJECT_NAME":"STARLINK-37146","OBJECT_ID":"2026-070P","EPOCH":"2026-04-20T22:00:01.999584","MEAN_MOTION":15.80897431,"ECCENTRICITY":0.00013755,"INCLINATION":53.1579,"RA_OF_ASC_NODE":172.6638,"ARG_OF_PERICENTER":78.3236,"MEAN_ANOMALY":275.809,"EPHEMERIS_TYPE":0,"CLASSIFICATION_TYPE":"U","NORAD_CAT_ID":68555,"ELEMENT_SET_NO":999,"REV_AT_EPOCH":416,"BSTAR":-0.0002967001,"MEAN_MOTION_DOT":-0.00058928,"MEAN_MOTION_DDOT":0},{"OBJECT_NAME":"STARLINK-37144","OBJECT_ID":"2026-070Q","EPOCH":"2026-04-20T22:00:01.999584","MEAN_MOTION":15.80909737,"ECCENTRICITY":9.162e-5,"INCLINATION":53.1579,"RA_OF_ASC_NODE":172.6286,"ARG_OF_PERICENTER":120.1604,"MEAN_ANOMALY":251.0561,"EPHEMERIS_TYPE":0,"CLASSIFICATION_TYPE":"U","NORAD_CAT_ID":68556,"ELEMENT_SET_NO":999,"REV_AT_EPOCH":416,"BSTAR":-0.00042552066,"MEAN_MOTION_DOT":-0.00084011,"MEAN_MOTION_DDOT":0},{"OBJECT_NAME":"STARLINK-37210","OBJECT_ID":"2026-070R","EPOCH":"2026-04-20T22:00:01.999584","MEAN_MOTION":15.80909271,"ECCENTRICITY":0.00011144,"INCLINATION":53.1582,"RA_OF_ASC_NODE":172.638,"ARG_OF_PERICENTER":96.0674,"MEAN_ANOMALY":270.877,"EPHEMERIS_TYPE":0,"CLASSIFICATION_TYPE":"U","NORAD_CAT_ID":68557,"ELEMENT_SET_NO":999,"REV_AT_EPOCH":416,"BSTAR":-0.00043543842,"MEAN_MOTION_DOT":-0.00085934,"MEAN_MOTION_DDOT":0},{"OBJECT_NAME":"STARLINK-37227","OBJECT_ID":"2026-070S","EPOCH":"2026-04-20T22:00:01.999584","MEAN_MOTION":15.80894695,"ECCENTRICITY":0.00011793,"INCLINATION":53.1581,"RA_OF_ASC_NODE":172.6197,"ARG_OF_PERICENTER":81.6654,"MEAN_ANOMALY":293.8272,"EPHEMERIS_TYPE":0,"CLASSIFICATION_TYPE":"U","NORAD_CAT_ID":68558,"ELEMENT_SET_NO":999,"REV_AT_EPOCH":416,"BSTAR":-0.00030684344,"MEAN_MOTION_DOT":-0.00060896,"MEAN_MOTION_DDOT":0},{"OBJECT_NAME":"STARLINK-37294","OBJECT_ID":"2026-070T","EPOCH":"2026-04-20T22:00:01.999584","MEAN_MOTION":15.80898465,"ECCENTRICITY":0.00013076,"INCLINATION":53.1581,"RA_OF_ASC_NODE":172.6113,"ARG_OF_PERICENTER":88.9982,"MEAN_ANOMALY":290.7643,"EPHEMERIS_TYPE":0,"CLASSIFICATION_TYPE":"U","NORAD_CAT_ID":68559,"ELEMENT_SET_NO":999,"REV_AT_EPOCH":416,"BSTAR":-0.00030268611,"MEAN_MOTION_DOT":-0.00060097,"MEAN_MOTION_DDOT":0},{"OBJECT_NAME":"STARLINK-37291","OBJECT_ID":"2026-070U","EPOCH":"2026-04-20T22:00:01.999584","MEAN_MOTION":15.80894711,"ECCENTRICITY":0.00011009,"INCLINATION":53.1582,"RA_OF_ASC_NODE":172.6025,"ARG_OF_PERICENTER":73.4676,"MEAN_ANOMALY":310.5669,"EPHEMERIS_TYPE":0,"CLASSIFICATION_TYPE":"U","NORAD_CAT_ID":68560,"ELEMENT_SET_NO":999,"REV_AT_EPOCH":416,"BSTAR":-0.00030504853,"MEAN_MOTION_DOT":-0.00060545,"MEAN_MOTION_DDOT":0},{"OBJECT_NAME":"STARLINK-37114","OBJECT_ID":"2026-070V","EPOCH":"2026-04-20T22:00:01.999584","MEAN_MOTION":15.80902784,"ECCENTRICITY":0.000137,"INCLINATION":53.1582,"RA_OF_ASC_NODE":172.5933,"ARG_OF_PERICENTER":118.0491,"MEAN_ANOMALY":270.2542,"EPHEMERIS_TYPE":0,"CLASSIFICATION_TYPE":"U","NORAD_CAT_ID":68561,"ELEMENT_SET_NO":999,"REV_AT_EPOCH":416,"BSTAR":-0.00033701988,"MEAN_MOTION_DOT":-0.00066797,"MEAN_MOTION_DDOT":0},{"OBJECT_NAME":"STARLINK-37233","OBJECT_ID":"2026-070W","EPOCH":"2026-04-20T22:00:01.999584","MEAN_MOTION":15.80911381,"ECCENTRICITY":8.739e-5,"INCLINATION":53.1583,"RA_OF_ASC_NODE":172.5758,"ARG_OF_PERICENTER":116.4194,"MEAN_ANOMALY":280.4224,"EPHEMERIS_TYPE":0,"CLASSIFICATION_TYPE":"U","NORAD_CAT_ID":68562,"ELEMENT_SET_NO":999,"REV_AT_EPOCH":416,"BSTAR":-0.0003991423,"MEAN_MOTION_DOT":-0.00078898,"MEAN_MOTION_DDOT":0},{"OBJECT_NAME":"STARLINK-36238","OBJECT_ID":"2026-070X","EPOCH":"2026-04-20T22:00:01.999584","MEAN_MOTION":15.80898338,"ECCENTRICITY":0.00011409,"INCLINATION":53.1583,"RA_OF_ASC_NODE":172.5847,"ARG_OF_PERICENTER":89.7851,"MEAN_ANOMALY":302.7902,"EPHEMERIS_TYPE":0,"CLASSIFICATION_TYPE":"U","NORAD_CAT_ID":68563,"ELEMENT_SET_NO":999,"REV_AT_EPOCH":412,"BSTAR":-0.00027349687,"MEAN_MOTION_DOT":-0.00054403,"MEAN_MOTION_DDOT":0},{"OBJECT_NAME":"STARLINK-37008","OBJECT_ID":"2026-070Y","EPOCH":"2026-04-20T22:00:01.999584","MEAN_MOTION":15.80910048,"ECCENTRICITY":7.714e-5,"INCLINATION":53.1582,"RA_OF_ASC_NODE":172.5667,"ARG_OF_PERICENTER":114.9851,"MEAN_ANOMALY":286.1317,"EPHEMERIS_TYPE":0,"CLASSIFICATION_TYPE":"U","NORAD_CAT_ID":68564,"ELEMENT_SET_NO":999,"REV_AT_EPOCH":416,"BSTAR":-0.0003960668,"MEAN_MOTION_DOT":-0.00078295,"MEAN_MOTION_DDOT":0},{"OBJECT_NAME":"STARLINK-37161","OBJECT_ID":"2026-070Z","EPOCH":"2026-04-20T22:00:01.999584","MEAN_MOTION":15.80918782,"ECCENTRICITY":9.153e-5,"INCLINATION":53.1584,"RA_OF_ASC_NODE":172.558,"ARG_OF_PERICENTER":91.8257,"MEAN_ANOMALY":313.5589,"EPHEMERIS_TYPE":0,"CLASSIFICATION_TYPE":"U","NORAD_CAT_ID":68565,"ELEMENT_SET_NO":999,"REV_AT_EPOCH":416,"BSTAR":-0.00049404879,"MEAN_MOTION_DOT":-0.0009732,"MEAN_MOTION_DDOT":0},{"OBJECT_NAME":"STARLINK-37212","OBJECT_ID":"2026-070AA","EPOCH":"2026-04-20T22:00:01.999584","MEAN_MOTION":15.80898968,"ECCENTRICITY":0.00010673,"INCLINATION":53.1582,"RA_OF_ASC_NODE":172.5485,"ARG_OF_PERICENTER":107.0324,"MEAN_ANOMALY":302.6296,"EPHEMERIS_TYPE":0,"CLASSIFICATION_TYPE":"U","NORAD_CAT_ID":68566,"ELEMENT_SET_NO":999,"REV_AT_EPOCH":416,"BSTAR":-0.00030265457,"MEAN_MOTION_DOT":-0.0006009,"MEAN_MOTION_DDOT":0},{"OBJECT_NAME":"STARLINK-37261","OBJECT_ID":"2026-070AB","EPOCH":"2026-04-20T22:00:01.999584","MEAN_MOTION":15.80904783,"ECCENTRICITY":0.0001167,"INCLINATION":53.1582,"RA_OF_ASC_NODE":172.5398,"ARG_OF_PERICENTER":72.9702,"MEAN_ANOMALY":340.963,"EPHEMERIS_TYPE":0,"CLASSIFICATION_TYPE":"U","NORAD_CAT_ID":68567,"ELEMENT_SET_NO":999,"REV_AT_EPOCH":416,"BSTAR":-0.00036249667,"MEAN_MOTION_DOT":-0.00071758,"MEAN_MOTION_DDOT":0},{"OBJECT_NAME":"STARLINK-37283","OBJECT_ID":"2026-070AC","EPOCH":"2026-04-20T15:02:29.941152","MEAN_MOTION":15.80982188,"ECCENTRICITY":5.591e-5,"INCLINATION":53.1576,"RA_OF_ASC_NODE":174.4127,"ARG_OF_PERICENTER":75.6578,"MEAN_ANOMALY":284.4506,"EPHEMERIS_TYPE":0,"CLASSIFICATION_TYPE":"U","NORAD_CAT_ID":68568,"ELEMENT_SET_NO":999,"REV_AT_EPOCH":288,"BSTAR":0.0016729252,"MEAN_MOTION_DOT":0.00344756,"MEAN_MOTION_DDOT":0},{"OBJECT_NAME":"STARLINK-37256","OBJECT_ID":"2026-070AD","EPOCH":"2026-04-20T13:32:32.989344","MEAN_MOTION":15.80957195,"ECCENTRICITY":0.00017541,"INCLINATION":53.1576,"RA_OF_ASC_NODE":174.7342,"ARG_OF_PERICENTER":58.4923,"MEAN_ANOMALY":301.6271,"EPHEMERIS_TYPE":0,"CLASSIFICATION_TYPE":"U","NORAD_CAT_ID":68569,"ELEMENT_SET_NO":999,"REV_AT_EPOCH":287,"BSTAR":0.0011606121,"MEAN_MOTION_DOT":0.00235642,"MEAN_MOTION_DDOT":0},{"OBJECT_NAME":"STARLINK-37228","OBJECT_ID":"2026-070AE","EPOCH":"2026-04-20T13:30:23.527584","MEAN_MOTION":15.80957586,"ECCENTRICITY":0.00035998,"INCLINATION":53.1579,"RA_OF_ASC_NODE":174.7248,"ARG_OF_PERICENTER":29.5199,"MEAN_ANOMALY":330.6026,"EPHEMERIS_TYPE":0,"CLASSIFICATION_TYPE":"U","NORAD_CAT_ID":68570,"ELEMENT_SET_NO":999,"REV_AT_EPOCH":287,"BSTAR":0.0015790846,"MEAN_MOTION_DOT":0.00324251,"MEAN_MOTION_DDOT":0}]
