STARLINK-37146          
1 68555U 26070P   26110.91668981 -.00058928  00000+0 -29670-3 0  9992
2 68555  53.1579 172.6638 0001375  78.3236 275.8090 15.80897431  4167
STARLINK-37144          
1 68556U 26070Q   26110.91668981 -.00084011  00000+0 -42552-3 0  9999
2 68556  53.1579 172.6286 0000916 120.1604 251.0561 15.80909737  4164
STARLINK-37210          
1 68557U 26070R   26110.91668981 -.00085934  00000+0 -43544-3 0  9997
2 68557  53.1582 172.6380 0001114  96.0674 270.8770 15.80909271  4167
STARLINK-37227          
1 68558U 26070S   26110.91668981 -.00060896  00000+0 -30684-3 0  9999
2 68558  53.1581 172.6197 0001179  81.6654 293.8272 15.80894695  4167
STARLINK-37294          
1 68559U 26070T   26110.91668981 -.00060097  00000+0 -30269-3 0  9992
2 68559  53.1581 172.6113 0001307  88.9982 290.7643 15.80898465  4160
STARLINK-37291          
1 68560U 26070U   26110.91668981 -.00060545  00000+0 -30505-3 0  9995
2 68560  53.1582 172.6025 0001100  73.4676 310.5669 15.80894711  4164
STARLINK-37114          
1 68561U 26070V   26110.91668981 -.00066797  00000+0 -33702-3 0  9993
2 68561  53.1582 172.5933 0001370 118.0491 270.2542 15.80902784  4164
STARLINK-37233          
1 68562U 26070W   26110.91668981 -.00078898  00000+0 -39914-3 0  9990
2 68562  53.1583 172.5758 0000873 116.4194 280.4224 15.80911381  4163
STARLINK-36238          
1 68563U 26070X   26110.91668981 -.00054403  00000+0 -27350-3 0  9998
2 68563  53.1583 172.5847 0001140  89.7851 302.7902 15.80898338  4126
STARLINK-37008          
1 68564U 26070Y   26110.91668981 -.00078295  00000+0 -39607-3 0  9992
2 68564  53.1582 172.5667 0000771 114.9851 286.1317 15.80910048  4168
STARLINK-37161          
1 68565U 26070Z   26110.91668981 -.00097320  00000+0 -49405-3 0  9990
2 68565  53.1584 172.5580 0000915  91.8257 313.5589 15.80918782  4167
STARLINK-37212          
1 68566U 26070AA  26110.91668981 -.00060090  00000+0 -30265-3 0  9999
2 68566  53.1582 172.5485 0001067 107.0324 302.6296 15.80898968  4161
STARLINK-37261          
1 68567U 26070AB  26110.91668981 -.00071758  00000+0 -36250-3 0  9993
2 68567  53.1582 172.5398 0001167  72.9702 340.9630 15.80904783  4166
STARLINK-37283          
1 68568U 26070AC  26110.62673543  .00344756  00000+0  16729-2 0  9999
2 68568  53.1576 174.4127 0000559  75.6578 284.4506 15.80982188  2882
STARLINK-37256          
1 68569U 26070AD  26110.56427071  .00235642  00000+0  11606-2 0  9998
2 68569  53.1576 174.7342 0001754  58.4923 301.6271 15.80957195  2876
STARLINK-37228          
1 68570U 26070AE  26110.56277231  .00324251  00000+0  15791-2 0  9995
2 68570  53.1579 174.7248 0003599  29.5199 330.6026 15.80957586  2873
